From: horizons@ssd.jpl.nasa.gov (Horizons Ephemeris System)
Subject: [Horizons] SMALL BODY #C(500@10)_T(72P/Denning-Fujikawa) (1/1)
Date: March 1, 2021 at 1:22:52 PM PST

Automated mail xmit by MAIL_REQUEST, PID= 2301 Mon Mar  1 13:22:52 2021
++++++++++++++++++++++++++++++++ (part 1 of 1)  +++++++++++++++++++++++++++++++
*******************************************************************************
JPL/HORIZONS                72P/Denning-Fujikawa           2021-Mar-01 13:22:52
Rec #:90000718 (+COV) Soln.date: 2014-Nov-10_13:40:54     # obs: 44 (1978-2014)

IAU76/J2000 helio. ecliptic osc. elements (au, days, deg., period=Julian yrs):

 EPOCH=  2456981.5 ! 2014-Nov-20.0000000 (TDB)    RMSW= n.a.
  EC= .8191545266363583   QR= .7841612055380167   TP= 2456850.1372194239
  OM= 36.10919645775216   W= 337.8580424566273    IN= 9.169283869658974
  A= 4.336084232317145    MA= 14.33936241458028   ADIST= 7.888007259096272
  PER= 9.0293144877463    N= .109158484           ANGMOM= .020545604
  DAN= .8111              DDN= 5.91286            L= 14.2233055
  B= -3.4432656           MOID= .0852532          TP= 2014-Jul-11.6372194239

Comet physical (GM= km^3/s^2; RAD= km):
  GM= n.a.                RAD= n.a.
  M1=  18.3     M2=  21.4     k1=  33.    k2=  5.      PHCOF=  .030

COMET comments 
1: soln ref.= JPL#21, data arc: 1978-10-10 to 2014-08-02
2: k1=33., k2=5., phase coef.=0.03;
*******************************************************************************


*******************************************************************************
Ephemeris / MAIL_REQUEST Mon Mar  1 13:22:52 2021 Pasadena, USA  / Horizons
*******************************************************************************
Target body name: 72P/Denning-Fujikawa            {source: JPL#21}
Center body name: Sun (10)                        {source: DE431}
Center-site name: BODY CENTER
*******************************************************************************
Start time      : A.D. 1990-Jan-01 00:00:00.0000 TDB
Stop  time      : A.D. 2020-Dec-31 00:00:00.0000 TDB
Step-size       : 10080 minutes
*******************************************************************************
Center geodetic : 0.00000000,0.00000000,0.0000000 {E-lon(deg),Lat(deg),Alt(km)}
Center cylindric: 0.00000000,0.00000000,0.0000000 {E-lon(deg),Dxy(km),Dz(km)}
Center radii    : 696000.0 x 696000.0 x 696000.0 k{Equator, meridian, pole}    
Small perturbers: Yes                             {source: SB431-N16}
Output units    : AU-D
Output type     : GEOMETRIC cartesian states
Output format   : 6 (LT, range, and range-rate)
Reference frame : Ecliptic of J2000.0
*******************************************************************************
Initial IAU76/J2000 heliocentric ecliptic osculating elements (au, days, deg.):
 EPOCH=  2456981.5 ! 2014-Nov-20.0000000 (TDB)    RMSW= n.a.                  
  EC= .8191545266363583   QR= .7841612055380167   TP= 2456850.1372194239      
  OM= 36.10919645775216   W= 337.8580424566273    IN= 9.169283869658974       
 Equivalent ICRF heliocentric equatorial cartesian coordinates (au, au/d):
  X=-1.225135580318438E+00  Y= 1.382490303205455E+00  Z= 9.610261807833115E-01
 VX=-1.433248117745174E-02 VY= 1.842489011887530E-03 VZ= 2.676418932678528E-03
Comet physical (GM= km^3/s^2; RAD= km):                                        
  GM= n.a.                RAD= n.a.                                           
  M1=  18.3     M2=  21.4     k1=  33.    k2=  5.      PHCOF=  .030           
*******************************************************************************
           JDTDB,            Calendar Date (TDB),                     LT,                     RG,                     RR,
**************************************************************************************************************************
$$SOE
2449992.500000000, A.D. 1995-Oct-02 00:00:00.0000,  1.821290032492633E-02,  3.153465936691922E+00, -8.761420895592334E-03,
2449999.500000000, A.D. 1995-Oct-09 00:00:00.0000,  1.785638030166041E-02,  3.091736408222534E+00, -8.876020735349906E-03,
2450006.500000000, A.D. 1995-Oct-16 00:00:00.0000,  1.749517409545637E-02,  3.029195492329678E+00, -8.993257958516835E-03,
2450013.500000000, A.D. 1995-Oct-23 00:00:00.0000,  1.712917363731469E-02,  2.965824477446133E+00, -9.113203225803321E-03,
2450020.500000000, A.D. 1995-Oct-30 00:00:00.0000,  1.675826813251499E-02,  2.901604180060736E+00, -9.235919687673195E-03,
2450027.500000000, A.D. 1995-Nov-06 00:00:00.0000,  1.638234447110090E-02,  2.836515015791638E+00, -9.361458250822506E-03,
2450034.500000000, A.D. 1995-Nov-13 00:00:00.0000,  1.600128777468102E-02,  2.770537094061958E+00, -9.489854947803045E-03,
2450041.500000000, A.D. 1995-Nov-20 00:00:00.0000,  1.561498208482138E-02,  2.703650337291241E+00, -9.621126137147031E-03,
2450048.500000000, A.D. 1995-Nov-27 00:00:00.0000,  1.522331129968840E-02,  2.635834643070160E+00, -9.755261145228662E-03,
2450055.500000000, A.D. 1995-Dec-04 00:00:00.0000,  1.482616045395405E-02,  2.567070105769222E+00, -9.892212590732972E-03,
2450062.500000000, A.D. 1995-Dec-11 00:00:00.0000,  1.442341744681182E-02,  2.497337315735462E+00, -1.003188374124872E-02,
2450069.500000000, A.D. 1995-Dec-18 00:00:00.0000,  1.401497535868082E-02,  2.426617760417321E+00, -1.017411182628217E-02,
2450076.500000000, A.D. 1995-Dec-25 00:00:00.0000,  1.360073554808524E-02,  2.354894360572701E+00, -1.031864584760054E-02,
2450083.500000000, A.D. 1996-Jan-01 00:00:00.0000,  1.318061178890322E-02,  2.282152186611410E+00, -1.046511693176222E-02,
2450090.500000000, A.D. 1996-Jan-08 00:00:00.0000,  1.275453579699377E-02,  2.208379415500936E+00, -1.061299882359481E-02,
2450097.500000000, A.D. 1996-Jan-15 00:00:00.0000,  1.232246460037062E-02,  2.133568606872500E+00, -1.076155553388011E-02,
2450104.500000000, A.D. 1996-Jan-22 00:00:00.0000,  1.188439039367290E-02,  2.057718409269765E+00, -1.090976902769066E-02,
2450111.500000000, A.D. 1996-Jan-29 00:00:00.0000,  1.144035389771682E-02,  1.980835873283492E+00, -1.105623698251497E-02,
2450118.500000000, A.D. 1996-Feb-05 00:00:00.0000,  1.099046254227780E-02,  1.902939599802687E+00, -1.119903512854948E-02,
2450125.500000000, A.D. 1996-Feb-12 00:00:00.0000,  1.053491517563061E-02,  1.824064018338843E+00, -1.133552820653570E-02,
2450132.500000000, A.D. 1996-Feb-19 00:00:00.0000,  1.007403587150439E-02,  1.744265240518748E+00, -1.146210448499172E-02,
2450139.500000000, A.D. 1996-Feb-26 00:00:00.0000,  9.608320523044122E-03,  1.663629127578840E+00, -1.157380249964636E-02,
2450146.500000000, A.D. 1996-Mar-04 00:00:00.0000,  9.138501434017692E-03,  1.582282473986012E+00, -1.166378510159360E-02,
2450153.500000000, A.D. 1996-Mar-11 00:00:00.0000,  8.665637289839802E-03,  1.500408585437512E+00, -1.172259761759187E-02,
2450160.500000000, A.D. 1996-Mar-18 00:00:00.0000,  8.191238871907281E-03,  1.418269045623345E+00, -1.173712556466064E-02,
2450167.500000000, A.D. 1996-Mar-25 00:00:00.0000,  7.717444706507420E-03,  1.336234128891988E+00, -1.168914852462022E-02,
2450174.500000000, A.D. 1996-Apr-01 00:00:00.0000,  7.247265092540948E-03,  1.254825052340847E+00, -1.155338969368213E-02,
2450181.500000000, A.D. 1996-Apr-08 00:00:00.0000,  6.784915863785802E-03,  1.174771764960819E+00, -1.129503701627900E-02,
2450188.500000000, A.D. 1996-Apr-15 00:00:00.0000,  6.336259722866932E-03,  1.097089362244379E+00, -1.086698172761153E-02,
2450195.500000000, A.D. 1996-Apr-22 00:00:00.0000,  5.909350883214317E-03,  1.023172388017341E+00, -1.020772174031302E-02,
2450202.500000000, A.D. 1996-Apr-29 00:00:00.0000,  5.515013386094002E-03,  9.548949669287645E-01, -9.242381698754331E-03,
2450209.500000000, A.D. 1996-May-06 00:00:00.0000,  5.167237218268431E-03,  8.946793900977509E-01, -7.891749562673148E-03,
2450216.500000000, A.D. 1996-May-13 00:00:00.0000,  4.882931772093573E-03,  8.454534280525193E-01, -6.096136982202369E-03,
2450223.500000000, A.D. 1996-May-20 00:00:00.0000,  4.680350195187825E-03,  8.103775153326050E-01, -3.856699707519621E-03,
2450230.500000000, A.D. 1996-May-27 00:00:00.0000,  4.575705397132515E-03,  7.922588302120481E-01, -1.278716207532845E-03,
2450237.500000000, A.D. 1996-Jun-03 00:00:00.0000,  4.578648951264652E-03,  7.927684908110140E-01,  1.423111625563090E-03,
2450244.500000000, A.D. 1996-Jun-10 00:00:00.0000,  4.688896606983831E-03,  8.118572806637074E-01,  3.987514055403196E-03,
2450251.500000000, A.D. 1996-Jun-17 00:00:00.0000,  4.896334966992843E-03,  8.477741193100143E-01,  6.204683163347940E-03,
2450258.500000000, A.D. 1996-Jun-24 00:00:00.0000,  5.184528931002103E-03,  8.976733573473310E-01,  7.975622726846675E-03,
2450265.500000000, A.D. 1996-Jul-01 00:00:00.0000,  5.535227739077981E-03,  9.583949736509231E-01,  9.303673379399200E-03,
2450272.500000000, A.D. 1996-Jul-08 00:00:00.0000,  5.931653928383887E-03,  1.027034040580743E+00,  1.025048856068673E-02,
2450279.500000000, A.D. 1996-Jul-15 00:00:00.0000,  6.359989950112045E-03,  1.101198123724010E+00,  1.089549262833714E-02,
2450286.500000000, A.D. 1996-Jul-22 00:00:00.0000,  6.809573876893190E-03,  1.179041167582774E+00,  1.131297121574927E-02,
2450293.500000000, A.D. 1996-Jul-29 00:00:00.0000,  7.272484289166495E-03,  1.259191620876916E+00,  1.156363354699657E-02,
2450300.500000000, A.D. 1996-Aug-05 00:00:00.0000,  7.742960010579402E-03,  1.340651966843103E+00,  1.169385915974085E-02,
2450307.500000000, A.D. 1996-Aug-12 00:00:00.0000,  8.216860082285676E-03,  1.422705220682982E+00,  1.173787547591571E-02,
2450314.500000000, A.D. 1996-Aug-19 00:00:00.0000,  8.691228448688077E-03,  1.504839557236005E+00,  1.172052011240039E-02,
2450321.500000000, A.D. 1996-Aug-26 00:00:00.0000,  9.163965585942867E-03,  1.586691455217457E+00,  1.165969369698984E-02,
2450328.500000000, A.D. 1996-Sep-02 00:00:00.0000,  9.633588701601510E-03,  1.668004177073505E+00,  1.156828108151439E-02,
2450335.500000000, A.D. 1996-Sep-09 00:00:00.0000,  1.009905921293754E-02,  1.748597897779474E+00,  1.145557282494068E-02,
